ONEWEB-0055             
1 45443U 20020V   21061.58334491 -.00043536  00000-0 -12342+0 0  9995
2 45443  87.8850  45.2295 0001991  84.5398 253.8231 13.11435675 49320
ONEWEB-0093             
1 45444U 20020W   21061.58334491 -.00045954  00000-0 -13027+0 0  9993
2 45444  87.8884  45.2860 0001840  93.3902  68.6030 13.11455685 49386
ONEWEB-0029             
1 45445U 20020X   21061.58334491 -.00043441  00000-0 -12315+0 0  9992
2 45445  87.8876  45.2680 0001879  85.8948 259.8550 13.11436402 49361
ONEWEB-0068             
1 45446U 20020Y   21061.58334491 -.00046126  00000-0 -13078+0 0  9993
2 45446  87.8888  45.2858 0002599  90.4185 101.0389 13.11444460 49302
ONEWEB-0046             
1 45447U 20020Z   21061.58334491 -.00046077  00000-0 -13064+0 0  9994
2 45447  87.8890  45.2891 0001991  93.2429 112.9159 13.11444531 49316
ONEWEB-0063             
1 45448U 20020AA  21061.58334491 -.00043320  00000-0 -12281+0 0  9993
2 45448  87.8868  45.3074 0002191 105.1740 255.3181 13.11433440 49390
ONEWEB-0019             
1 45449U 20020AB  21061.58334491 -.00046109  00000-0 -13073+0 0  9992
2 45449  87.8892  45.2596 0001891  84.9579  99.1725 13.11445506 49244
ONEWEB-0094             
1 45450U 20020AC  21061.58334491 -.01427085  00000-0 -78467+0 0  9999
2 45450  87.7605  31.1404 0028504 130.9755 207.4725 14.14912082 51549
ONEWEB-0087             
1 45451U 20020AD  21061.58334491 -.00043642  00000-0 -12372+0 0  9995
2 45451  87.8883  45.2877 0001881  85.6578 245.3733 13.11436316 49293
ONEWEB-0082             
1 45452U 20020AE  21061.58334491 -.00043772  00000-0 -12409+0 0  9991
2 45452  87.8865  45.2572 0002184  86.8831 236.8075 13.11437493 49389
ONEWEB-0050             
1 45453U 20020AF  21061.58334491 -.00048825  00000-0 -44828-2 0  9999
2 45453  87.5453  29.1108 0028337 122.4794 219.5551 14.94891203 51777
ONEWEB-0034             
1 45454U 20020AG  21061.58334491 -.00045142  00000-0 -12798+0 0  9997
2 45454  87.8885  45.2809 0001981  95.5722 169.3385 13.11443243 49302
ONEWEB-0060             
1 45455U 20020AH  21061.58334491 -.00045743  00000-0 -12969+0 0  9995
2 45455  87.8891  45.2724 0001971  90.6043 144.9545 13.11443754 49255
ONEWEB-0086             
1 45456U 20020AJ  21061.58334491 -.00046022  00000-0 -13048+0 0  9996
2 45456  87.8886  45.2707 0002046  92.3572  77.0045 13.11446321 49301
ONEWEB-0088             
1 45457U 20020AK  21061.58334491 -.00045314  00000-0 -12847+0 0  9996
2 45457  87.8883  45.3065 0001993  95.0032 162.5610 13.11442978 49254
ONEWEB-0102             
1 47258U 20100A   21061.66667824  .00029062  00000-0  20775-1 0  9995
2 47258  87.6526  15.9858 0010515  33.6129 358.3622 13.96970750 11024
ONEWEB-0109             
1 47259U 20100B   21061.83334491  .00000016  00000-0  00000+0 0  9991
2 47259  87.5435  15.7788 0010698  35.5271 319.5093 13.87776495 10945
ONEWEB-0110             
1 47260U 20100C   21061.83334491  .00029215  00000-0  20524-1 0  9990
2 47260  87.6343  15.9178 0010514  34.4772 106.9899 13.97949244 11030
ONEWEB-0111             
1 47261U 20100D   21061.83334491  .00000016  00000-0  00000+0 0  9994
2 47261  87.5705  15.6330 0011531  34.9562 320.4023 13.88522625 10931
ONEWEB-0114             
1 47262U 20100E   21061.83334491  .00000016  00000-0  00000+0 0  9995
2 47262  87.5368  15.6098 0011015  21.4471 121.8346 13.84372543 10912
ONEWEB-0117             
1 47263U 20100F   21061.83334491  .00000016  00000-0  00000+0 0  9996
2 47263  87.5099  15.6768 0011795  38.4692 315.3121 13.80641494 10939
ONEWEB-0118             
1 47264U 20100G   21061.83334491 -.00468559  00000-0 -34682+0 0  9992
2 47264  87.6877  15.9571 0012801  23.6183 346.3442 13.97755823 11065
ONEWEB-0119             
1 47265U 20100H   21061.83334491  .00028202  00000-0  20021-1 0  9992
2 47265  87.6180  15.9196 0014653  25.1694 226.9376 13.97341942 11036
ONEWEB-0120             
1 47266U 20100J   21061.83334491  .00028196  00000-0  19890-1 0  9997
2 47266  87.6321  15.9446 0011383  36.4669 309.8925 13.97719711 11041
ONEWEB-0121             
1 47267U 20100K   21061.66667824 -.01160371  00000-0 -96356+0 0  9993
2 47267  87.5669  15.7285 0014226  36.0113  16.8849 13.91911890 10926
ONEWEB-0122             
1 47268U 20100L   21061.66667824 -.00920910  00000-0 -82402+0 0  9993
2 47268  87.5528  15.6729 0010322  31.1584  49.5704 13.87387166 10891
ONEWEB-0123             
1 47269U 20100M   21061.83334491  .00029177  00000-0  20885-1 0  9996
2 47269  87.6022  15.8991 0009872  28.3402  56.0479 13.96898074 11023
ONEWEB-0124             
1 47270U 20100N   21061.83334491  .00000016  00000-0  00000+0 0  9994
2 47270  87.5049  15.8097 0010933  22.6617 184.5653 13.85867757 10959
ONEWEB-0125             
1 47271U 20100P   21061.66667824 -.01190991  00000-0 -96324+0 0  9994
2 47271  87.5603  15.8504 0010353  23.1153 290.5463 13.93537975 10958
ONEWEB-0126             
1 47272U 20100Q   21061.83334491  .00028786  00000-0  20590-1 0  9998
2 47272  87.6373  15.9618 0009958  19.0608 164.1559 13.96941995 11035
ONEWEB-0127             
1 47273U 20100R   21061.50002315 -.01145974  00000-0 -77236+0 0  9999
2 47273  87.6823  16.0381 0012639  27.4545  40.8527 14.03719312 11016
ONEWEB-0128             
1 47274U 20100S   21061.83334491 -.01171607  00000-0 -86523+0 0  9990
2 47274  87.6881  15.9641 0012381   3.0362 162.8769 13.98654811 11073
ONEWEB-0129             
1 47275U 20100T   21061.83334491  .00028763  00000-0  20399-1 0  9993
2 47275  87.5881  15.8839 0013030  33.6051  17.2095 13.97403856 10981
ONEWEB-0130             
1 47276U 20100U   21061.83334491 -.00680220  00000-0 -51620+0 0  9997
2 47276  87.5886  15.9386 0009679  20.0026 292.5370 13.96946057 11003
ONEWEB-0131             
1 47277U 20100V   21061.83334491  .00028791  00000-0  20491-1 0  9999
2 47277  87.6347  15.9019 0008711  25.9633  28.7005 13.97228795 11023
ONEWEB-0132             
1 47278U 20100W   21061.66667824 -.01152269  00000-0 -97401+0 0  9994
2 47278  87.5670  15.7928 0010930  36.2916 109.2529 13.90881281 10926
ONEWEB-0133             
1 47279U 20100X   21061.83334491  .00028130  00000-0  20301-1 0  9998
2 47279  87.6661  15.9895 0013419  21.5869 283.0776 13.96423477 11057
ONEWEB-0134             
1 47280U 20100Y   21061.83334491 -.01299022  00000-0 -90463+0 0  9997
2 47280  87.6384  15.9480 0014011  32.1205 261.3762 14.02310302 11045
ONEWEB-0135             
1 47281U 20100Z   21061.66667824  .00026276  00000-0  18696-1 0  9994
2 47281  87.6818  15.9913 0013175   8.9455 136.9355 13.97235840 11037
ONEWEB-0136             
1 47282U 20100AA  21061.83334491  .00029312  00000-0  21097-1 0  9998
2 47282  87.5985  15.9234 0009610  26.7890  72.4742 13.96589211 11002
ONEWEB-0137             
1 47283U 20100AB  21061.83334491  .00000016  00000-0  00000+0 0  9998
2 47283  87.5646  15.7538 0012258  19.5511 315.6973 13.86781494 10940
ONEWEB-0138             
1 47284U 20100AC  21061.66667824  .00027611  00000-0  19894-1 0  9992
2 47284  87.5815  15.7383 0013387  33.0493  97.8568 13.96518981 10928
ONEWEB-0139             
1 47285U 20100AD  21061.58334491 -.00027431  00000-0 -19593-1 0  9993
2 47285  87.6444  16.0530 0011541   9.3611 113.4071 13.97497089 11015
ONEWEB-0140             
1 47286U 20100AE  21061.83334491 -.01097652  00000-0 -72118+0 0  9995
2 47286  87.7271  15.8560 0011941  36.9049  93.6363 14.05550974 11016
ONEWEB-0141             
1 47287U 20100AF  21061.58334491 -.00025946  00000-0 -18460-1 0  9996
2 47287  87.6804  15.9338 0012838  19.0838 309.4398 13.97700352 10973
ONEWEB-0142             
1 47288U 20100AG  21061.58334491 -.00029594  00000-0 -21258-1 0  9999
2 47288  87.6222  16.0207 0008703  25.1725 179.2998 13.97206481 10988
ONEWEB-0143             
1 47289U 20100AH  21061.58334491 -.01169081  00000-0 -91776+0 0  9997
2 47289  87.5547  15.8644 0014452  35.7246 236.4612 13.95159379 10938
ONEWEB-0144             
1 47290U 20100AJ  21061.66667824 -.01150804  00000-0 -97150+0 0  9992
2 47290  87.5664  15.8148 0010945  40.1730  16.3482 13.90952728 10923
ONEWEB-0145             
1 47291U 20100AK  21061.50002315 -.01192139  00000-0 -71143+0 0  9995
2 47291  87.7295  15.9991 0013141   5.0267  66.2688 14.10568373 11036
ONEWEB-0146             
1 47292U 20100AL  21061.58334491 -.00025580  00000-0 -18306-1 0  9995
2 47292  87.6525  15.9478 0013946  27.1918 314.1134 13.97364193 10963
ONEWEB-0147             
1 47293U 20100AM  21061.83334491  .00000016  00000-0  00000+0 0  9999
2 47293  87.5336  15.8099 0011735  20.4783 321.2355 13.86692790 10959
